NAVSTAR 86 (USA 585)    
1 68791U 26087A   26129.59234782  .00000008  00000+0  00000+0 0  9990
2 68791  54.9643 209.3141 0004760 271.1141 138.2769  2.00569833    66
